
833
SAQB31 LQMO 022350
METAR LQMO 022350Z 09003KT 6000 FEW010 SCT035 BKN060 08/08 Q1003=

834
SAIN32 VIDP 022330
METAR VIJP 022330Z 00000KT 2000 FU FEW100 12/05 Q1017 NOSIG=
METAR VIDP 022330Z 25004KT 0900 R28/P2000 R29/P2000 MIFG NSC 09/05
      Q1016 NOSIG=
METAR VILK 022330Z VRB02KT 2000 BR NSC 10/08 Q1015=
METAR VIAR 022330Z 00000KT 0050 R34/0200N BR NSC 08/08 Q1017=

857
SAMX41 KWBC 022345 RRB
NIL=

858
SAMX31 KWBC 022345 RRB
NIL=

859
SAMX42 KWBC 022345
NIL=

904
SAIN90 VECC 022350
METAR VECC 022350Z 00000KT 1600 BR NSC 15/13 Q1013 NOSIG=

911
SATR31 RUMS 022200 CCA
METAR UTAK 020600Z 15002MPS CAVOK 02/01 Q1019 NOSIG RMK SC 07=

912
SABZ19 SBBE 030000 RRA
METAR SBBE 030000Z 05005KT 9999 SCT030 BKN100 25/22 Q1010 =

913
SAES20 MSLP 030000
METAR MSLP 022350Z 22003KT CAVOK 26/22 Q1012 A2988=
METAR MSSS 022350Z 35005KT CAVOK 26/21 Q1017 A3005=

914
SAEO32 EETN 022350
METAR EETU 022350Z AUTO 17007KT 9999NDV SCT062/// BKN078///
M02/M03 Q1011=

915
SAEO32 EETN 022350
METAR EEKE 022350Z AUTO 04013KT 1000NDV R17///// R35///// SN VV008
M04/M05 Q1008=

916
SALV31 EVRA 022350
METAR EVRA 022350Z 17010KT 8000 FEW013 M02/M02 Q1011 R18/190060
NOSIG=

917
SAFA31 EKCH 022350
METAR EKVG 022350Z AUTO 12025KT 9999NDV -RA  BKN030/// 02/M01
Q1007 RMK FEW014/// BKN027/// BKN190/// WIND 850FT 12044KT=

918
SABW31 VGHS 022350
METAR VGHS 022350Z 33404KT 1600 BR SCT120 18/16 Q1012 TEMPO S/VISI
1200M=

919
SAEO31 EETN 022350
METAR EETN 022350Z 10005KT 4000 SN SCT011 BKN026 OVC034 M06/M07 Q1011
R08/810295 =

920
SAIS31 LLBG 022350
METAR LLBG 022350Z 05001KT 9000 NSC 14/12 Q1017 TEMPO 7000 NSC=
METAR LLOV 022350Z 25003KT CAVOK 11/03 Q1018=
METAR LLET 022350Z NIL=

921
SAYE20 OYAA 030000
METAR OYAA 030000Z 07010KT 9999 SCT020 SCT080 26/21 Q1013=
METAR OYSQ 030000Z 05006KT 9999 FEW018 23/19 Q1013=

922
SALT31 EYVI 022350
METAR EYVI 022350Z 13008KT 4000 BR OVC039 M01/M02 Q1011 R20/1///95
     NOSIG=

923
SALT33 EYVI 022350
METAR EYPA 022350Z NIL=

925
SAMJ41 LWSK 030000
METAR LWSK 030000Z 00000KT 2200 BR FEW010 SCT040 04/04 Q1004 NOSIG=

982
SAUS54 KWBC 022200 RRJ
METAR
KMWS 022243Z 27505G10KT 07/07=

983
SAUS54 KWBC 022300 RRF
METAR
KJDN 022348Z AUTO 14003KT 09/M01 A2923=
KSDB 022348Z AUTO 18009KT 10SM BKN009 09/08 A3009=

073
SAPM31 MPTO 030000
METAR
MPTO  030000Z 30004KT 9999 FEW018  26/23 Q1010 NOSIG=

074
SAHO31 MHTG 030000
METAR
MHRO 030000Z 30002KT 9999 SCT020 24/21 Q1015 A3000 NOSIG=
MHLC 030000Z 15003KT 9999 SCT028CB SCT070 24/23 Q1016 A3001 NOSIG=
MHLM 030000Z 08003KT 9999 FEW028 SCT080 24/23 Q1016 A3000 NOSIG=
MHTG 030000Z 02007KT 9999 SCT028 SCT220 20/18 Q1019 A3009 NOSIG=

075
SALT34 EYVI 022350
METAR EYSA 022350Z 18007KT 7000 NSC M03/M04 Q1011 R14L/29//62
R14R/29//62=

076
SAIN31 VABB 022340
METAR VAAH 022340Z 03005KT 3500 HZ NSC 17/13 Q1012 NOSIG=
METAR VABB 022340Z 00000KT 2200 FU SCT100 25/18 Q1010 NOSIG=
METAR VANP 022340Z 00000KT 5000 HZ NSC 16/13 Q1014 TEMPO 4000 HZ=
METAR VOHS 022340Z 00000KT 4000 HZ NSC 17/15 Q1015 NOSIG=
METAR VOMM 022340Z 00000KT 4000 -DZ SCT020 FEW025CB BKN100 24/22
     Q1009 NOSIG=
METAR VOTR 022340Z 35005KT 5000 HZ SCT016 BKN100 25/16 Q1010 =
METAR VOTV 022340Z 00000KT 3000 HZ NSC 23/21 Q1008 NOSIG=

077
SAEU31 BKPR 030000
BKPR 030000Z VRB01KT 8000 SCT025 BKN050 04/03 Q1003 NOSIG RMK
 17210095 =

078
SABZ21 SBSV 030000
METAR SBSV 030000Z 09010KT 9999 FEW017 26/20 Q1014 =

119
SANK31 MNMG 030000
METAR
MNMG 030000Z 09004KT 9999 FEW020 29/19 Q1011 A2986 1AC060 1CI300 NOSIG=

181
SABZ19 SBSL 030000 RRA
METAR SBSL 030000Z 06008KT CAVOK 27/20 Q1010 =

182
SASW31 LSSW 022350
METAR LSZH 022350Z 20006KT 170V230 9999 -SN BKN025 BKN043 M01/M04
    Q1018 R88/29//// NOSIG=
METAR LSGG 022350Z 22002KT 9999 FEW035 M04/M05 Q1020 NOSIG=
METAR LSZB 022350Z AUTO VRB01KT 9999 OVC050 M03/M03 Q1019=
METAR LSZA 022350Z AUTO 01003KT CAVOK 01/M08 Q1013=

183
SASW39 LSSW 022350
METAR LSMA 022350Z NIL=
METAR LSMD 022350Z NIL=
METAR LSME 022350Z NIL=
METAR LSMM 022350Z NIL=
METAR LSMP 022350Z NIL=
METAR LSMS 022350Z AUTO VRB01KT 8000NDV NCD M04/M06 Q1019 RMK BLU=

184
SAGU31 MGGT 030000
METAR
MGGT 030000Z 36012KT 9999 FEW018 SCT080 18/13 Q1026 A3030 FEW200=

185
SALV32 EVRA 022350
METAR EVLA 022350Z AUTO 16009KT 140V200 9000 FEW006 00/M00 Q1009=
METAR EVVA 022350Z AUTO 18009KT 3900 RASN BKN004 OVC014 01/01 Q1008=

186
SACV20 GVAC 030000
METAR GVAC 030000Z 07017KT 9999 SCT014 BKN100 BKN200 22/15 Q1019
NOSIG=

187
SAMP31 LMMM 030000
METAR HLLT 022350Z
22005KT CAV0K 09/M02 Q1020=
METAR HLLB 022345Z
32017KT 9999 SCT020 18/11 Q1017 =
METAR LMML 022345Z AUTO 30014KT 9999NDV FEW034/// 15/09 Q1015=

192
SALY31 HLLT 030000
METAR HLLT 022350Z 22005KT CAV0K 09/M02 Q1020=

235
SAFK41 EGYP 022350
METAR EGYP 022350Z 23012KT 9999 -RA FEW004 BKN005 08/07 Q0983 YLO1=

242
SASW32 LSSW 022350
METAR LSGC 022350Z AUTO 22003KT 9999 -SN SCT011 OVC029 M06/M07
    Q1016=
METAR LSGS 022350Z NIL=
METAR LSZG 022350Z AUTO 23008KT 9999 -SN OVC046 M01/M04 Q1019=
METAR LSZR 022350Z AUTO 26009KT 8000 -SN BKN046 01/M05 Q1017=
METAR LSZS 022350Z NIL=
METAR LSZC 022350Z NIL=
METAR LSZL 022350Z AUTO VRB01KT 9999NDV NCD 00/M07 Q1013 RMK BLU=

249
SASN31 ESWI 022350
METAR ESGG 022350Z 06003KT CAVOK M12/M13 Q1012 R03/19//95=
METAR ESGJ 022350Z 00000KT 9999 SG BKN005 M11/M11 Q1012 RESN
R19/720070=
METAR ESGP 022350Z VRB02KT CAVOK M10/M11 Q1014=
METAR ESGT 022350Z NIL=
METAR ESMK 022350Z AUTO 29005KT 9999NDV FEW024/// M08/M09 Q1012=
METAR ESMQ 022350Z AUTO 34010KT 9999NDV -SN OVC017/// M07/M08
Q1011=
METAR ESMS 022350Z 34007KT CAVOK M10/M11 Q1012 R17/0///95=
METAR ESMT 022350Z AUTO 05006KT 9999NDV SCT089/// M09/M11 Q1013=
METAR ESMX 022350Z NIL=
METAR ESTA 022350Z AUTO 08004KT 9999NDV OVC120/// M08/M10 Q1012=
METAR ESTL 022350Z AUTO 00000KT 3900NDV BR NCD M14/M15 Q1013=

250
SADL31 EDZO 022350
METAR EDDF 022350Z 25007KT 9999 FEW022 SCT042 BKN060 03/01 Q1015
     R25L/2///95 R25C/2///95 R25R/2///95 R18/21//95 NOSIG=
METAR EDDH 022350Z 25003KT 9999 FEW017 M02/M04 Q1014 NOSIG=
METAR EDDK 022350Z 27007KT 9999 -DZ BKN008 03/02 Q1015 NOSIG=
METAR EDDL 022350Z 25005KT 8000 SCT004 BKN006 03/02 Q1015 NOSIG=
METAR EDDM 022350Z 27015KT 9999 -SN FEW012 BKN018 M00/M02 Q1014 TEMPO
     BKN012=
METAR EDDN 022350Z 28010KT 5000 -SN FEW007 OVC010 01/M00 Q1013
     R28/29//95=
METAR EDDS 022350Z 24007KT 9999 -SN SCT016 BKN045 01/M02 Q1016=
METAR EDDT 022350Z 29004KT 6000 BKN007 00/M00 Q1012=
METAR EDDV 022350Z 31005KT 8000 FEW004 SCT009 BKN030 00/M00
     Q1014=

251
SADN31 EKCH 022350
METAR EKCH 022350Z 07007KT 9999 FEW012 M06/M08 Q1012 04550164
54550148 12990399 NOSIG=
METAR EKBI 022350Z 15001KT CAVOK M09/M10 Q1012 09720177=
METAR EKYT 022350Z 09006KT 2600 -SHSN FEW006 BKN022 M04/M04
Q1013 08590299=
METAR EKRK 022350Z AUTO 31004KT 9999NDV BKN130/// M11/M12 Q1012
99920251 99951026=
METAR EKAH 022350Z AUTO 28001KT 9999NDV BKN071/// M06/M08 Q1013
99910261=
METAR EKEB 022350Z AUTO 14007KT 9999NDV SCT130/// M07/M08 Q1012=
METAR EKRN 022350Z AUTO 01008KT 9999NDV SCT009/// BKN075///
M00/M00 Q1010=

252
SADN32 EKCH 022350
METAR EKVJ 022353Z NIL=
METAR EKSB 022353Z NIL=
METAR EKSN 022353Z NIL=
METAR EKVD 022353Z NIL=
METAR EKOD 022353Z NIL=

253
SADN33 EKCH 022350
METAR EKKA 022350Z 09003KT CAVOK M06/M08 Q1012 59910295 RMK
FEW078 SCT140=
METAR EKSP 022350Z 00000KT CAVOK M10/M11 Q1013 RMK FEW100 SCT200=

254
SADN34 EKCH 022350
METAR EKHN 022350Z AUTO 20014G24KT 140V300 9999NDV SCT021///
BKN074/// BKN110/// 04/01 Q1013=
METAR EKHR 022350Z AUTO 19014KT 9999NDV FEW020/// BKN120///
03/M02 Q1011=
METAR EKAV 022350Z AUTO VRB01KT 9999NDV OVC058/// M02/M08 Q1013=

255
SAMX43 MMMZ 030000
METAR MMCL 022340Z 27006KT 10SM  SKC 28/21 A2995
      RMK SLP132 57003 902 HZY/ISOL CI=
METAR MMCN 022340Z 26005KT 10SM  SCT200 28/10 A2992
      RMK SLP132 8/001 HZY=
METAR MMDO 022347Z 22009KT 14SM  FEW200 23/M05 A3018
      RMK SLP134 57006 902 8/002 DSNT CU NE=
METAR MMGM 022340Z 18007KT 10SM  SCT200 23/16 A2992 RMK 8/001 HZY=
METAR MMHO 022342Z 25004KT 12SM  SKC 29/02 A2999 RMK SLP155 52008
910=
METAR MMLM 022343Z 27007KT 10SM  FEW220 26/15 A2995
      RMK SLP142 8/001 HZY=
METAR MMLP 022344Z 36010KT 10SM  BKN200 25/15 A2998
      RMK SLP190 52013 928 8/006=
METAR MMLT 022344Z 36006KT 8SM  FEW200 25/18 A2997 RMK SLP149 8/001=
METAR MMML 022345Z 00000KT 10SM  SKC 26/09 A2998
      RMK SLP157 52009 963 ISOL-CI=
METAR MMMZ 022341Z 26010KT 12SM  SKC 26/19 A2991 RMK SLP130 57003
905=
METAR MMSD 022346Z 15010KT 15SM  FEW040 25/18 A2998
      RMK SLP144 52009 909 8/500 CI=
METAR MMSL 022342Z 22009KT 12SM  SCT040 25/18 A3002 RMK 8/500 CI=
METAR MMTJ 022351Z 28009KT 7SM  SCT200 18/12 A3009
      RMK SLP203 57015 901 8/002 HZY=

256
SAFI31 EFHK 022350
METAR EFHK 022350Z VRB01KT CAVOK M17/M20 Q1012 NOSIG=
METAR EFJY 022350Z AUTO 13002KT 9999 -SN NCD
M18/M19 Q1009=
METAR EFKU 022350Z AUTO 20007KT 4900 -SN BKN012
M14/M15 Q1008 RESN=
METAR EFOU 022350Z AUTO 02003KT CAVOK M19/M21 Q1009 120/0084=
METAR EFRO 022350Z AUTO 03002KT 6000 -SG SCT022
BKN030 M12/M13 Q1008=
METAR EFTP 022350Z AUTO VRB02KT 3200 -SHSN BKN130
BKN145 M19/M21 Q1011=
METAR EFTU 022350Z AUTO VRB02KT CAVOK M17/M18 Q1011 R08/92//86=
METAR EFVA 022350Z AUTO 18004KT 9999 -SN FEW014/// BKN037///
BKN098/// M13/M14 Q1010 R16/410195=

257
SADL32 EDZO 022350
METAR EDDB 022350Z 32005KT 8000 -SN FEW005 SCT016 BKN038 00/M01 Q1011
     TEMPO BKN008=
METAR EDDC 022350Z 30005KT 4500 -SG BR BKN003 M01/M01 Q1010
     R04/690394=
METAR EDDE 022350Z 30006KT 9999 -SN SCT010 BKN043 M00/M01 Q1012
     R88/550246=
METAR EDDG 022350Z VRB01KT 9999 BKN030 01/00 Q1015 NOSIG=
METAR EDDP 022350Z 31009KT 4200 -SN BR BKN004 00/00 Q1012 TEMPO
     BKN005=
METAR EDDR 022350Z 25008KT 9999 FEW008 BKN050 00/M01 Q1017
     R27/290195=
METAR EDDW 022350Z 22002KT 9999 BKN022 01/M02 Q1014 R88/290194=

260
SAER10 OMAM 022330
METAR OMAD 022330Z NIL=
METAR OMAH 022330Z NIL=
METAR OMAM 022330Z 00000KT 9999NDV FEW030 18/14 Q1014=
METAR OMDL 022330Z AUTO 30005KT 260V360 /////NDV //// ///// 19/12 Q1015=
METAR OMDM 022330Z AUTO 24002KT /////NDV //// ///// 17/15 Q1013=
METAR OMLW 022330Z 00000KT 8000NDV ///// 16/12 Q1014=
METAR OMMZ 022330Z AUTO 31002KT /////NDV //// ///// 17/12 Q0997=
METAR OMSN 022330Z AUTO 00000KT /////NDV //// ///// 21/14 Q1019=
METAR OMSW 022330Z NIL=
METAR OMTH 022330Z NIL=

269
SAMX55 MMIO 030000
METAR MMIO 022340Z 36010KT 10SM SKC 19/12 A3013 RMK SC=

277
SAMX31 KWBC 030045
METAR
MNMG 030000Z 09004KT 9999 FEW020 29/19 Q1011 A2986 1AC060 1CI300
     NOSIG=

278
SAUS53 KWBC 022300 RRI
METAR
KEHA 022348Z AUTO 16009KT 11/M04=

358
SABA31 MYNN 022354
METAR MYNN 030000Z 05010KT 9999 FEW022 24/18 A3014=


NNNN

367
SANO38 ENMI 022350
METAR ENDR 022350Z AUTO 15005KT M02/M07 Q1015=
METAR ENEK 022350Z NIL=
METAR ENGC 022350Z 06023KT 9999 BKN033 02/M06 Q1011 W06/S5=
METAR ENHE 022350Z 02009KT 9999 BKN040 00/M10 Q1015 W03/S4=
METAR ENOA 022350Z 04017KT 9999 SCT032 00/M07 Q1010 W///S4=
METAR ENSL 022350Z AUTO 06012KT 9999NDV BKN034/// 03/M05 Q1009
           W06/S4=
METAR ENFB 022350Z AUTO 04021KT 9999NDV BKN038/// 02/M05 Q1011
           W///S5=
METAR ENSF 022350Z AUTO 05022KT 9999NDV FEW038/// SCT042/// 02/M06
           Q1011 W///S5=

369
SANO39 ENMI 022350
METAR ENNE 022350Z NIL=
METAR ENQR 022350Z AUTO 06015G26KT 040V110 9999NDV BKN035///
           BKN039/// 02/M06 Q1011 W///S5=
METAR ENSE 022350Z AUTO 05024KT 9999NDV FEW033/// BKN038/// 01/M07
           Q1012 W///S5=
METAR ENQC 022350Z AUTO 06012KT 9999NDV FEW030/// 00/M07 Q1010
           W///S4=
METAR ENQA 022350Z AUTO 05012KT 9999NDV NCD M01/M09 Q1011 W03/S4=
METAR ENHM 022350Z AUTO 05007KT 360V100 9999NDV BKN041/// 02/M07
           Q1010 W08/S4=

